[{"OBJECT_NAME":"STARLINK-34839","OBJECT_ID":"2025-212AD","EPOCH":"2026-03-09T22:26:54.658176","MEAN_MOTION":15.3021873,"ECCENTRICITY":9.877e-5,"INCLINATION":53.1595,"RA_OF_ASC_NODE":344.3512,"ARG_OF_PERICENTER":112.3139,"MEAN_ANOMALY":247.7966,"EPHEMERIS_TYPE":0,"CLASSIFICATION_TYPE":"U","NORAD_CAT_ID":65703,"ELEMENT_SET_NO":999,"REV_AT_EPOCH":2728,"BSTAR":0.00070590751,"MEAN_MOTION_DOT":0.00020618,"MEAN_MOTION_DDOT":0},{"OBJECT_NAME":"OBJECT BE","OBJECT_ID":"2025-313BE","EPOCH":"2026-03-09T16:43:59.380320","MEAN_MOTION":15.29801687,"ECCENTRICITY":0.00072083,"INCLINATION":97.3989,"RA_OF_ASC_NODE":145.3568,"ARG_OF_PERICENTER":335.3714,"MEAN_ANOMALY":24.7181,"EPHEMERIS_TYPE":0,"CLASSIFICATION_TYPE":"U","NORAD_CAT_ID":67482,"ELEMENT_SET_NO":999,"REV_AT_EPOCH":797,"BSTAR":0.0026504328,"MEAN_MOTION_DOT":0.00077178,"MEAN_MOTION_DDOT":0}]
